NORAD_CAT_ID,OBJECT_NAME,OBJECT_TYPE,EPOCH,MEAN_MOTION,ECCENTRICITY,INCLINATION,RA_OF_ASC_NODE,ARG_OF_PERICENTER,MEAN_ANOMALY,BSTAR,MEAN_MOTION_DOT,MEAN_MOTION_DDOT,TLE_LINE0,TLE_LINE1,TLE_LINE2,SEMIMAJOR_AXIS,PERIOD,APOGEE,PERIGEE,DECAYED
52340.0,STARLINK-3818,PAYLOAD,2022-12-27 12:17:26,15.0885848,0.000264,53.2184,43.2679,24.7869,335.3249,0.00015924,2.248e-05,0.0,0 STARLINK-3818,1 52340U 22045K   22361.51211792  .00002248  00000-0  15924-3 0  9999,2 52340  53.2184  43.2679 0002640  24.7869 335.3249 15.08858480 39411,6917.824000000001,95.436,541.515,537.863,0.0
52340.0,STARLINK-3818,PAYLOAD,2022-12-29 02:26:43,15.088472,0.0002516,53.2195,36.1328,25.0051,335.1062,-3.6487e-05,-8.69e-06,0.0,0 STARLINK-3818,1 52340U 22045K   22363.10188896 -.00000869  00000-0 -36487-4 0  9991,2 52340  53.2195  36.1328 0002516  25.0051 335.1062 15.08847200 39659,6917.858,95.437,541.464,537.9830000000002,0.0
52340.0,STARLINK-3818,PAYLOAD,2022-12-29 11:59:02,15.08809144,0.0002508999999999,53.217,34.3467,25.0385,335.0728,5.4213e-05,5.74e-06,0.0,0 STARLINK-3818,1 52340U 22045K   22363.49933455  .00000574  00000-0  54213-4 0  9990,2 52340  53.2170  34.3467 0002509  25.0385 335.0728 15.08809144 39718,6917.975,95.44,541.575,538.104,0.0
52340.0,STARLINK-3818,PAYLOAD,2022-12-30 11:49:50,15.08819568,0.0002525,53.2169,29.885,26.5606,333.5515,0.00013302,1.828e-05,0.0,0 STARLINK-3818,1 52340U 22045K   22364.49294558  .00001828  00000-0  13302-3 0  9991,2 52340  53.2169  29.8850 0002525  26.5606 333.5515 15.08819568 39865,6917.943,95.439,541.555,538.061,0.0
52340.0,STARLINK-3818,PAYLOAD,2022-12-31 05:19:03,15.08845879,0.0002653,53.2173,26.6157,28.9692,331.1447,0.00032142,4.832e-05,0.0,0 STARLINK-3818,1 52340U 22045K   22365.22156910  .00004832  00000-0  32142-3 0  9993,2 52340  53.2173  26.6157 0002653  28.9692 331.1447 15.08845879 39972,6917.861999999999,95.437,541.563,537.8919999999998,0.0
52340.0,STARLINK-3818,PAYLOAD,2022-12-31 11:40:35,15.08849248,0.0002658,53.2177,25.4275,29.2657,330.8484,0.0003365,5.073e-05,0.0,0 STARLINK-3818,1 52340U 22045K   22365.48652750  .00005073  00000-0  33650-3 0  9997,2 52340  53.2177  25.4275 0002658  29.2657 330.8484 15.08849248 40012,6917.852,95.437,541.556,537.878,0.0
52340.0,STARLINK-3818,PAYLOAD,2022-12-31 18:02:08,15.08843607,0.0002706,53.218,24.2372,29.3794,330.735,0.00028894,4.314e-05,0.0,0 STARLINK-3818,1 52340U 22045K   22365.75149225  .00004314  00000-0  28894-3 0  9996,2 52340  53.2180  24.2372 0002706  29.3794 330.7350 15.08843607 40056,6917.869000000002,95.437,541.606,537.862,0.0
52340.0,STARLINK-3818,PAYLOAD,2023-01-01 05:09:52,15.08832626,0.0002601,53.2192,22.1549,25.0575,335.0543,5.0766e-05,5.19e-06,0.0,0 STARLINK-3818,1 52340U 22045K   23001.21518710  .00000519  00000-0  50766-4 0  9991,2 52340  53.2192  22.1549 0002601  25.0575 335.0543 15.08832626 40125,6917.903,95.438,541.567,537.969,0.0
52340.0,STARLINK-3818,PAYLOAD,2023-01-01 11:31:25,15.08829607,0.0002661,53.219,20.9665,22.9073,337.2037,2.2231e-05,6.5e-07,0.0,0 STARLINK-3818,1 52340U 22045K   23001.48015091  .00000065  00000-0  22231-4 0  9996,2 52340  53.2190  20.9665 0002661  22.9073 337.2037 15.08829607 40164,6917.9119999999975,95.438,541.618,537.936,0.0
52340.0,STARLINK-3818,PAYLOAD,2023-01-01 17:52:58,15.08822016,0.0002595,53.2189,19.7767,28.6681,331.4454,-0.00010656,-1.983e-05,0.0,0 STARLINK-3818,1 52340U 22045K   23001.74512058 -.00001983  00000-0 -10656-3 0  9999,2 52340  53.2189  19.7767 0002595  28.6681 331.4454 15.08822016 40206,6917.935,95.439,541.596,538.005,0.0
52340.0,STARLINK-3818,PAYLOAD,2023-01-02 09:46:48,15.08845399,0.000265,53.2182,16.8027,25.235,334.8771,-0.00011715,-2.153e-05,0.0,0 STARLINK-3818,1 52340U 22045K   23002.40750725 -.00002153  00000-0 -11715-3 0  9995,2 52340  53.2182  16.8027 0002650  25.2350 334.8771 15.08845399 40303,6917.864000000001,95.437,541.562,537.896,0.0
52340.0,STARLINK-3818,PAYLOAD,2023-01-02 17:43:43,15.08847391,0.0002713,53.2181,15.316,25.0439,335.0685,1.8097e-06,-2.6e-06,0.0,0 STARLINK-3818,1 52340U 22045K   23002.73870203 -.00000260  00000-0  18097-5 0  9993,2 52340  53.2181  15.3160 0002713  25.0439 335.0685 15.08847391 40356,6917.858,95.437,541.6,537.846,0.0
52340.0,STARLINK-3818,PAYLOAD,2023-01-03 09:37:35,15.08834004,0.0002644,53.2187,12.3422,25.3725,334.7397,0.000214,3.119e-05,0.0,0 STARLINK-3818,1 52340U 22045K   23003.40110891  .00003119  00000-0  21400-3 0  9993,2 52340  53.2187  12.3422 0002644  25.3725 334.7397 15.08834004 40458,6917.899,95.438,541.5930000000002,537.935,0.0
52340.0,STARLINK-3818,PAYLOAD,2023-01-03 12:48:21,15.08837193,0.0002661999999999,53.2185,11.7474,26.0835,334.0291,0.0002395,3.525e-05,0.0,0 STARLINK-3818,1 52340U 22045K   23003.53358750  .00003525  00000-0  23950-3 0  9998,2 52340  53.2185  11.7474 0002662  26.0835 334.0291 15.08837193 40476,6917.889,95.438,541.596,537.9119999999998,0.0
52340.0,STARLINK-3818,PAYLOAD,2023-01-04 12:39:08,15.08849495,0.0002675,53.2175,7.2869,25.7406,334.3719,0.0002354,3.461e-05,0.0,0 STARLINK-3818,1 52340U 22045K   23004.52718470  .00003461  00000-0  23540-3 0  9991,2 52340  53.2175   7.2869 0002675  25.7406 334.3719 15.08849495 40620,6917.851,95.437,541.567,537.866,0.0
52340.0,STARLINK-3818,PAYLOAD,2023-01-04 20:36:03,15.0885548,0.0002726,53.2178,5.8006,23.7921,336.3196,0.00023092,3.39e-05,0.0,0 STARLINK-3818,1 52340U 22045K   23004.85837960  .00003390  00000-0  23092-3 0  9996,2 52340  53.2178   5.8006 0002726  23.7921 336.3196 15.08855480 40674,6917.833000000001,95.437,541.5840000000002,537.812,0.0
52340.0,STARLINK-3818,PAYLOAD,2023-01-05 10:54:31,15.08860559,0.0002781,53.2178,3.1245,25.8544,334.2587,0.0002842,4.24e-05,0.0,0 STARLINK-3818,1 52340U 22045K   23005.45453172  .00004240  00000-0  28420-3 0  9997,2 52340  53.2178   3.1245 0002781  25.8544 334.2587 15.08860559 40769,6917.818,95.436,541.606,537.759,0.0
52340.0,STARLINK-3818,PAYLOAD,2023-01-05 17:16:03,15.08862855,0.0002738,53.2174,1.9343,28.2238,331.8902,0.00027114,4.032e-05,0.0,0 STARLINK-3818,1 52340U 22045K   23005.71948781  .00004032  00000-0  27114-3 0  9999,2 52340  53.2174   1.9343 0002738  28.2238 331.8902 15.08862855 40809,6917.811,95.436,541.57,537.781,0.0
52340.0,STARLINK-3818,PAYLOAD,2023-01-06 05:59:09,15.08837226,0.0002647,53.2173,359.556,18.4911,341.6177,-0.00034788,-5.821e-05,0.0,0 STARLINK-3818,1 52340U 22045K   23006.24941113 -.00005821  00000-0 -34788-3 0  9994,2 52340  53.2173 359.5560 0002647  18.4911 341.6177 15.08837226 40884,6917.889,95.438,541.585,537.923,0.0
52340.0,STARLINK-3818,PAYLOAD,2023-01-06 10:45:19,15.08827276,0.0002662,53.2176,358.6644,22.237,337.8738,-0.00026932,-4.571e-05,0.0,0 STARLINK-3818,1 52340U 22045K   23006.44814195 -.00004571  00000-0 -26932-3 0  9998,2 52340  53.2176 358.6644 0002662  22.2370 337.8738 15.08827276 40917,6917.919,95.438,541.626,537.943,0.0
52340.0,STARLINK-3818,PAYLOAD,2023-01-07 01:03:47,15.08837846,0.0002768,53.2176,355.9879,25.7277,334.3852,-5.1827e-05,-1.113e-05,0.0,0 STARLINK-3818,1 52340U 22045K   23007.04429904 -.00001113  00000-0 -51827-4 0  9996,2 52340  53.2176 355.9879 0002768  25.7277 334.3852 15.08837846 41002,6917.887,95.438,541.6669999999998,537.837,0.0
52340.0,STARLINK-3818,PAYLOAD,2023-01-07 05:49:56,15.08845008,0.0002774,53.2176,355.0958,26.1814,333.9318,0.0001608,2.272e-05,0.0,0 STARLINK-3818,1 52340U 22045K   23007.24301783  .00002272  00000-0  16080-3 0  9998,2 52340  53.2176 355.0958 0002774  26.1814 333.9318 15.08845008 41034,6917.865,95.437,541.649,537.811,0.0
52340.0,STARLINK-3818,PAYLOAD,2023-01-07 20:08:25,15.08836374,0.0002642,53.2177,352.4197,24.4805,335.6312,0.00048961,7.512e-05,0.0,0 STARLINK-3818,1 52340U 22045K   23007.83918742  .00007512  00000-0  48961-3 0  9997,2 52340  53.2177 352.4197 0002642  24.4805 335.6312 15.08836374 41125,6917.891,95.438,541.5840000000002,537.929,0.0
52340.0,STARLINK-3818,PAYLOAD,2023-01-08 05:40:44,15.08837158,0.0002735,53.2182,350.6364,23.166,336.9455,0.00039532,6.008e-05,0.0,0 STARLINK-3818,1 52340U 22045K   23008.23662952  .00006008  00000-0  39532-3 0  9994,2 52340  53.2182 350.6364 0002735  23.1660 336.9455 15.08837158 41184,6917.889,95.438,541.646,537.862,0.0
52340.0,STARLINK-3818,PAYLOAD,2023-01-08 10:26:53,15.08847155,0.0002775,53.2181,349.7435,25.753,334.36,0.00056953,8.789e-05,0.0,0 STARLINK-3818,1 52340U 22045K   23008.43534717  .00008789  00000-0  56953-3 0  9997,2 52340  53.2181 349.7435 0002775  25.7530 334.3600 15.08847155 41215,6917.859,95.437,541.643,537.804,0.0
52340.0,STARLINK-3818,PAYLOAD,2023-01-08 21:34:35,15.08850441,0.0002742,53.218,347.6618,26.9267,333.1867,0.000683,0.00010602,0.0,0 STARLINK-3818,1 52340U 22045K   23008.89902688  .00010602  00000-0  68300-3 0  9999,2 52340  53.2180 347.6618 0002742  26.9267 333.1867 15.08850441 41289,6917.848000000001,95.437,541.61,537.817,0.0
52340.0,STARLINK-3818,PAYLOAD,2023-01-09 05:31:31,15.08840726,0.0002604,53.2183,346.1745,28.699,331.4146,0.00019339,2.791e-05,0.0,0 STARLINK-3818,1 52340U 22045K   23009.23022759  .00002791  00000-0  19339-3 0  9998,2 52340  53.2183 346.1745 0002604  28.6990 331.4146 15.08840726 41338,6917.8780000000015,95.438,541.545,537.942,0.0
52340.0,STARLINK-3818,PAYLOAD,2023-01-09 15:03:50,15.08841651,0.0002674,53.2185,344.3905,28.2837,331.83,0.00015415,2.166e-05,0.0,0 STARLINK-3818,1 52340U 22045K   23009.62766727  .00002166  00000-0  15415-3 0  9998,2 52340  53.2185 344.3905 0002674  28.2837 331.8300 15.08841651 41391,6917.875,95.437,541.59,537.891,0.0
52340.0,STARLINK-3818,PAYLOAD,2023-01-10 10:08:28,15.08838112,0.000268,53.2181,340.8228,29.6874,330.427,3.5379e-05,2.75e-06,0.0,0 STARLINK-3818,1 52340U 22045K   23010.42254950  .00000275  00000-0  35379-4 0  9999,2 52340  53.2181 340.8228 0002680  29.6874 330.4270 15.08838112 41512,6917.886,95.438,541.605,537.8969999999998,0.0
